{
    "links": {
        "self": "http://www.neowsapp.com/rest/v1/neo/3467165?api_key=iIulBulltgU6a56xZRHN4H3l9WmuAYTsLGpBGhQ2"
    },
    "id": "3467165",
    "neo_reference_id": "3467165",
    "name": "(2009 RX4)",
    "designation": "2009 RX4",
    "nasa_jpl_url": "http://ssd.jpl.nasa.gov/sbdb.cgi?sstr=3467165",
    "absolute_magnitude_h": 26.2,
    "estimated_diameter": {
        "kilometers": {
            "estimated_diameter_min": 0.0152951935,
            "estimated_diameter_max": 0.0342010925
        },
        "meters": {
            "estimated_diameter_min": 15.2951935344,
            "estimated_diameter_max": 34.201092472
        },
        "miles": {
            "estimated_diameter_min": 0.0095039897,
            "estimated_diameter_max": 0.021251567
        },
        "feet": {
            "estimated_diameter_min": 50.1810827555,
            "estimated_diameter_max": 112.2083122258
        }
    },
    "is_potentially_hazardous_asteroid": false,
    "close_approach_data": [
        {
            "close_approach_date": "2006-09-11",
            "close_approach_date_full": "2006-Sep-11 06:34",
            "epoch_date_close_approach": 1157956440000,
            "relative_velocity": {
                "kilometers_per_second": "9.3676207374",
                "kilometers_per_hour": "33723.4346547857",
                "miles_per_hour": "20954.4308275806"
            },
            "miss_distance": {
                "astronomical": "0.1599076388",
                "lunar": "62.2040714932",
                "kilometers": "23921842.161209356",
                "miles": "14864343.4502108728"
            },
            "orbiting_body": "Earth"
        },
        {
            "close_approach_date": "2009-09-14",
            "close_approach_date_full": "2009-Sep-14 17:35",
            "epoch_date_close_approach": 1252949700000,
            "relative_velocity": {
                "kilometers_per_second": "7.9654876224",
                "kilometers_per_hour": "28675.7554405129",
                "miles_per_hour": "17817.9992624676"
            },
            "miss_distance": {
                "astronomical": "0.0715462736",
                "lunar": "27.8315004304",
                "kilometers": "10703170.136997232",
                "miles": "6650641.5287845216"
            },
            "orbiting_body": "Earth"
        },
        {
            "close_approach_date": "2012-09-16",
            "close_approach_date_full": "2012-Sep-16 20:11",
            "epoch_date_close_approach": 1347826260000,
            "relative_velocity": {
                "kilometers_per_second": "8.350820113",
                "kilometers_per_hour": "30062.9524069714",
                "miles_per_hour": "18679.9495108762"
            },
            "miss_distance": {
                "astronomical": "0.1705252537",
                "lunar": "66.3343236893",
                "kilometers": "25510214.734729619",
                "miles": "15851312.4010379822"
            },
            "orbiting_body": "Earth"
        }
    ],
    "orbital_data": {
        "orbit_id": "6",
        "orbit_determination_date": "2017-04-06 09:00:04",
        "first_observation_date": "2009-09-15",
        "last_observation_date": "2009-09-16",
        "data_arc_in_days": 1,
        "observations_used": 14,
        "orbit_uncertainty": "8",
        "minimum_orbit_intersection": ".0713827",
        "jupiter_tisserand_invariant": "4.906",
        "epoch_osculation": "2455090.5",
        "eccentricity": ".1897113401619113",
        "semi_major_axis": "1.317204986416731",
        "inclination": "14.65312983127786",
        "ascending_node_longitude": "349.5662398276093",
        "orbital_period": "552.177207444489",
        "perihelion_distance": "1.067316263175661",
        "perihelion_argument": "21.03398838647552",
        "aphelion_distance": "1.567093709657801",
        "perihelion_time": "2455108.660563572576",
        "mean_anomaly": "348.1599551774606",
        "mean_motion": ".651964614160919",
        "equinox": "J2000",
        "orbit_class": {
            "orbit_class_type": "AMO",
            "orbit_class_description": "Near-Earth asteroid orbits similar to that of 1221 Amor",
            "orbit_class_range": "1.017 AU < q (perihelion) < 1.3 AU"
        }
    },
    "is_sentry_object": false
}